QIANFAN-225             
1 69854U 26155G   26201.85131616 -.01901411  00000+0 -10422+1 0  9990
2 69854  89.0058  60.3070 0030870 211.2476 148.6877 14.15492416  2180
QIANFAN-226             
1 69855U 26155H   26201.84946910 -.01876422  00000+0 -10230+1 0  9991
2 69855  89.0057  60.3056 0030903 211.7262 148.2064 14.15730699  2181
QIANFAN-227             
1 69856U 26155J   26201.84451914 -.02007701  00000+0 -10763+1 0  9995
2 69856  89.0059  60.3052 0036548 206.7275 153.2031 14.16807628  2187
QIANFAN-228             
1 69857U 26155K   26201.84294538 -.02024202  00000+0 -10785+1 0  9992
2 69857  89.0051  60.3053 0033714 214.2747 145.6267 14.17224151  2182
QIANFAN-229             
1 69858U 26155L   26201.83637554 -.01998884  00000+0 -10233+1 0  9994
2 69858  89.0049  60.3036 0031974 209.9907 149.9452 14.19336860  2182
QIANFAN-230             
1 69859U 26155M   26201.86836995  .00000127  00000+0  55055-4 0  9994
2 69859  89.0058  60.3079 0029138 204.0624 155.9205 14.17863734  2187
QIANFAN-231             
1 69860U 26155N   26201.41648255 -.01852077  00000+0 -91185+0 0  9998
2 69860  89.0059  60.3526 0030164 205.4049 154.5661 14.21141856  2128
QIANFAN-232             
1 69861U 26155P   26201.90704359  .00000054  00000+0  17003-4 0  9990
2 69861  89.0062  60.2958 0030221 203.9290 156.0500 14.23941949  2195
QIANFAN-233             
1 69862U 26155Q   26201.55281181 -.01943930  00000+0 -96209+0 0  9997
2 69862  89.0058  60.3358 0030613 206.3000 153.6638 14.21045295  2144
QIANFAN-234             
1 69863U 26155R   26201.83197523 -.01859872  00000+0 -89095+0 0  9991
2 69863  89.0059  60.3037 0031013 199.0431 160.9603 14.22591660  2181
QIANFAN-235             
1 69864U 26155S   26201.90357058  .00000200  00000+0  76427-4 0  9991
2 69864  89.0063  60.2955 0030811 204.1479 155.8273 14.26765991  2191
QIANFAN-236             
1 69865U 26155T   26201.90483993 -.02080381  00000+0 -10371+1 0  9994
2 69865  89.0063  60.2955 0028674 202.7563 157.2359 14.20972476  2197
QIANFAN-237             
1 69866U 26155U   26201.90178917 -.01768163  00000+0 -86061+0 0  9990
2 69866  89.0060  60.2956 0029368 207.7860 152.1765 14.22228585  2183
QIANFAN-238             
1 69867U 26155V   26201.90169262 -.01811262  00000+0 -87020+0 0  9999
2 69867  89.0058  60.2952 0028436 203.4292 156.5606 14.22380114  2194
