{"fetched_at":"2026-07-21T07:06:31.784Z","source":"https://celestrak.org/NORAD/elements/gp.php?GROUP=qianfan&FORMAT=JSON","constellation":"qianfan","records":[{"OBJECT_NAME":"QIANFAN-225","OBJECT_ID":"2026-155G","EPOCH":"2026-07-20T20:25:53.716224","CLASSIFICATION_TYPE":"U","MEAN_MOTION":14.15492416,"ECCENTRICITY":0.00308702,"INCLINATION":89.0058,"RA_OF_ASC_NODE":60.307,"ARG_OF_PERICENTER":211.2476,"MEAN_ANOMALY":148.6877,"EPHEMERIS_TYPE":0,"NORAD_CAT_ID":69854,"ELEMENT_SET_NO":999,"REV_AT_EPOCH":218,"BSTAR":-1.0422402,"MEAN_MOTION_DOT":-0.01901411,"MEAN_MOTION_DDOT":0},{"OBJECT_NAME":"QIANFAN-226","OBJECT_ID":"2026-155H","EPOCH":"2026-07-20T20:23:14.130240","CLASSIFICATION_TYPE":"U","MEAN_MOTION":14.15730699,"ECCENTRICITY":0.0030903,"INCLINATION":89.0057,"RA_OF_ASC_NODE":60.3056,"ARG_OF_PERICENTER":211.7262,"MEAN_ANOMALY":148.2064,"EPHEMERIS_TYPE":0,"NORAD_CAT_ID":69855,"ELEMENT_SET_NO":999,"REV_AT_EPOCH":218,"BSTAR":-1.0230282,"MEAN_MOTION_DOT":-0.01876422,"MEAN_MOTION_DDOT":0},{"OBJECT_NAME":"QIANFAN-227","OBJECT_ID":"2026-155J","EPOCH":"2026-07-20T20:16:06.453696","CLASSIFICATION_TYPE":"U","MEAN_MOTION":14.16807628,"ECCENTRICITY":0.00365481,"INCLINATION":89.0059,"RA_OF_ASC_NODE":60.3052,"ARG_OF_PERICENTER":206.7275,"MEAN_ANOMALY":153.2031,"EPHEMERIS_TYPE":0,"NORAD_CAT_ID":69856,"ELEMENT_SET_NO":999,"REV_AT_EPOCH":218,"BSTAR":-1.0762633,"MEAN_MOTION_DOT":-0.02007701,"MEAN_MOTION_DDOT":0},{"OBJECT_NAME":"QIANFAN-228","OBJECT_ID":"2026-155K","EPOCH":"2026-07-20T20:13:50.480832","CLASSIFICATION_TYPE":"U","MEAN_MOTION":14.17224151,"ECCENTRICITY":0.00337144,"INCLINATION":89.0051,"RA_OF_ASC_NODE":60.3053,"ARG_OF_PERICENTER":214.2747,"MEAN_ANOMALY":145.6267,"EPHEMERIS_TYPE":0,"NORAD_CAT_ID":69857,"ELEMENT_SET_NO":999,"REV_AT_EPOCH":218,"BSTAR":-1.0784518,"MEAN_MOTION_DOT":-0.02024202,"MEAN_MOTION_DDOT":0},{"OBJECT_NAME":"QIANFAN-229","OBJECT_ID":"2026-155L","EPOCH":"2026-07-20T20:04:22.846656","CLASSIFICATION_TYPE":"U","MEAN_MOTION":14.1933686,"ECCENTRICITY":0.0031974,"INCLINATION":89.0049,"RA_OF_ASC_NODE":60.3036,"ARG_OF_PERICENTER":209.9907,"MEAN_ANOMALY":149.9452,"EPHEMERIS_TYPE":0,"NORAD_CAT_ID":69858,"ELEMENT_SET_NO":999,"REV_AT_EPOCH":218,"BSTAR":-1.0233089,"MEAN_MOTION_DOT":-0.01998884,"MEAN_MOTION_DDOT":0},{"OBJECT_NAME":"QIANFAN-230","OBJECT_ID":"2026-155M","EPOCH":"2026-07-20T20:50:27.163680","CLASSIFICATION_TYPE":"U","MEAN_MOTION":14.17863734,"ECCENTRICITY":0.00291389,"INCLINATION":89.0058,"RA_OF_ASC_NODE":60.3079,"ARG_OF_PERICENTER":204.0624,"MEAN_ANOMALY":155.9205,"EPHEMERIS_TYPE":0,"NORAD_CAT_ID":69859,"ELEMENT_SET_NO":999,"REV_AT_EPOCH":218,"BSTAR":0.000055055319,"MEAN_MOTION_DOT":0.00000127,"MEAN_MOTION_DDOT":0},{"OBJECT_NAME":"QIANFAN-231","OBJECT_ID":"2026-155N","EPOCH":"2026-07-20T09:59:44.092320","CLASSIFICATION_TYPE":"U","MEAN_MOTION":14.21141856,"ECCENTRICITY":0.00301643,"INCLINATION":89.0059,"RA_OF_ASC_NODE":60.3526,"ARG_OF_PERICENTER":205.4049,"MEAN_ANOMALY":154.5661,"EPHEMERIS_TYPE":0,"NORAD_CAT_ID":69860,"ELEMENT_SET_NO":999,"REV_AT_EPOCH":212,"BSTAR":-0.91185421,"MEAN_MOTION_DOT":-0.01852077,"MEAN_MOTION_DDOT":0},{"OBJECT_NAME":"QIANFAN-232","OBJECT_ID":"2026-155P","EPOCH":"2026-07-20T21:46:08.566176","CLASSIFICATION_TYPE":"U","MEAN_MOTION":14.23941949,"ECCENTRICITY":0.00302212,"INCLINATION":89.0062,"RA_OF_ASC_NODE":60.2958,"ARG_OF_PERICENTER":203.929,"MEAN_ANOMALY":156.05,"EPHEMERIS_TYPE":0,"NORAD_CAT_ID":69861,"ELEMENT_SET_NO":999,"REV_AT_EPOCH":219,"BSTAR":0.000017002925,"MEAN_MOTION_DOT":5.4e-7,"MEAN_MOTION_DDOT":0},{"OBJECT_NAME":"QIANFAN-233","OBJECT_ID":"2026-155Q","EPOCH":"2026-07-20T13:16:02.940384","CLASSIFICATION_TYPE":"U","MEAN_MOTION":14.21045295,"ECCENTRICITY":0.0030613,"INCLINATION":89.0058,"RA_OF_ASC_NODE":60.3358,"ARG_OF_PERICENTER":206.3,"MEAN_ANOMALY":153.6638,"EPHEMERIS_TYPE":0,"NORAD_CAT_ID":69862,"ELEMENT_SET_NO":999,"REV_AT_EPOCH":214,"BSTAR":-0.96208764,"MEAN_MOTION_DOT":-0.0194393,"MEAN_MOTION_DDOT":0},{"OBJECT_NAME":"QIANFAN-234","OBJECT_ID":"2026-155R","EPOCH":"2026-07-20T19:58:02.659872","CLASSIFICATION_TYPE":"U","MEAN_MOTION":14.2259166,"ECCENTRICITY":0.00310139,"INCLINATION":89.0059,"RA_OF_ASC_NODE":60.3037,"ARG_OF_PERICENTER":199.0431,"MEAN_ANOMALY":160.9603,"EPHEMERIS_TYPE":0,"NORAD_CAT_ID":69863,"ELEMENT_SET_NO":999,"REV_AT_EPOCH":218,"BSTAR":-0.89095173,"MEAN_MOTION_DOT":-0.01859872,"MEAN_MOTION_DDOT":0},{"OBJECT_NAME":"QIANFAN-235","OBJECT_ID":"2026-155S","EPOCH":"2026-07-20T21:41:08.498112","CLASSIFICATION_TYPE":"U","MEAN_MOTION":14.26765991,"ECCENTRICITY":0.00308115,"INCLINATION":89.0063,"RA_OF_ASC_NODE":60.2955,"ARG_OF_PERICENTER":204.1479,"MEAN_ANOMALY":155.8273,"EPHEMERIS_TYPE":0,"NORAD_CAT_ID":69864,"ELEMENT_SET_NO":999,"REV_AT_EPOCH":219,"BSTAR":0.000076426792,"MEAN_MOTION_DOT":0.000002,"MEAN_MOTION_DDOT":0},{"OBJECT_NAME":"QIANFAN-236","OBJECT_ID":"2026-155T","EPOCH":"2026-07-20T21:42:58.169952","CLASSIFICATION_TYPE":"U","MEAN_MOTION":14.20972476,"ECCENTRICITY":0.00286744,"INCLINATION":89.0063,"RA_OF_ASC_NODE":60.2955,"ARG_OF_PERICENTER":202.7563,"MEAN_ANOMALY":157.2359,"EPHEMERIS_TYPE":0,"NORAD_CAT_ID":69865,"ELEMENT_SET_NO":999,"REV_AT_EPOCH":219,"BSTAR":-1.0370818,"MEAN_MOTION_DOT":-0.02080381,"MEAN_MOTION_DDOT":0},{"OBJECT_NAME":"QIANFAN-237","OBJECT_ID":"2026-155U","EPOCH":"2026-07-20T21:38:34.584288","CLASSIFICATION_TYPE":"U","MEAN_MOTION":14.22228585,"ECCENTRICITY":0.00293689,"INCLINATION":89.006,"RA_OF_ASC_NODE":60.2956,"ARG_OF_PERICENTER":207.786,"MEAN_ANOMALY":152.1765,"EPHEMERIS_TYPE":0,"NORAD_CAT_ID":69866,"ELEMENT_SET_NO":999,"REV_AT_EPOCH":218,"BSTAR":-0.86061151,"MEAN_MOTION_DOT":-0.01768163,"MEAN_MOTION_DDOT":0},{"OBJECT_NAME":"QIANFAN-238","OBJECT_ID":"2026-155V","EPOCH":"2026-07-20T21:38:26.242368","CLASSIFICATION_TYPE":"U","MEAN_MOTION":14.22380114,"ECCENTRICITY":0.00284361,"INCLINATION":89.0058,"RA_OF_ASC_NODE":60.2952,"ARG_OF_PERICENTER":203.4292,"MEAN_ANOMALY":156.5606,"EPHEMERIS_TYPE":0,"NORAD_CAT_ID":69867,"ELEMENT_SET_NO":999,"REV_AT_EPOCH":219,"BSTAR":-0.87019902,"MEAN_MOTION_DOT":-0.01811262,"MEAN_MOTION_DDOT":0}]}
